
STARLINK-32141          
1 60290U 24132N   25045.21473928 -.00001121  00000+0 -25727-4 0  9994
2 60290  53.1623  56.8212 0001452  94.1252 265.9915 15.30192085 32082
STARLINK-32142          
1 60291U 24132P   25045.19363332  .00000307  00000+0  22502-4 0  9990
2 60291  53.1608  56.6876 0001257  94.8003 265.3141 15.30194473 32082
STARLINK-32149          
1 60292U 24132Q   25045.23375255 -.00000442  00000+0 -28064-5 0  9995
2 60292  53.1618  56.9417 0001448  87.5969 272.5198 15.30175196 32083
STARLINK-32159          
1 60293U 24132R   25044.73432359  .00000251  00000+0  20595-4 0  9995
2 60293  53.1613  58.7970 0001255  99.9600 260.1543 15.30190150 32015
STARLINK-32150          
1 60294U 24132S   25044.45312327  .00001360  00000+0  58049-4 0  9994
2 60294  53.1613  60.6007 0001516  72.0130 288.1036 15.30193210 31969
STARLINK-32126          
1 60295U 24132T   25045.18423278 -.00008890  00000+0 -28798-3 0  9998
2 60295  53.1600  57.3368 0000922  79.3441 280.7663 15.30243929 32074
STARLINK-32143          
1 60296U 24132U   25044.32566477  .00000511  00000+0  29378-4 0  9999
2 60296  53.1600  61.2266 0001225  65.2013 294.9115 15.30188005 31949
STARLINK-32034          
1 60297U 24132V   25044.44256750  .00001953  00000+0  78058-4 0  9993
2 60297  53.1614  60.5356 0001345  82.8041 277.3113 15.30191591 31965
STARLINK-32124          
1 60298U 24132W   25045.17369102  .00000116  00000+0  16033-4 0  9996
2 60298  53.1607  57.2752 0001269  81.2459 278.8686 15.30203804 32077
STARLINK-32151          
1 60299U 24132X   25045.20852667  .00138165  00000+0  13734-2 0  9993
2 60299  53.1501  39.6068 0005429  21.0087 339.1151 15.64801888 32314
STARLINK-32134          
1 60300U 24132Y   25044.75965116 -.00000398  00000+0 -13213-5 0  9992
2 60300  53.1615  58.9566 0001363  94.3248 265.7908 15.30189545 32018
STARLINK-11147 [DTC]    
1 60301U 24133A   25045.00429934  .00003065  00000+0  30169-4 0  9996
2 60301  53.1579 262.5270 0000857  49.2356 310.8736 15.69692357 32719
STARLINK-11128 [DTC]    
1 60302U 24133B   25044.04434522 -.00001466  00000+0 -72437-5 0  9999
2 60302  53.1588 267.2006 0000988  95.1295 264.9836 15.69707390 32530
STARLINK-11227 [DTC]    
1 60303U 24133C   25044.99448194 -.00000771  00000+0 -15046-5 0  9995
2 60303  53.1589 262.4587 0001012  94.1291 265.9842 15.69713059 32770
STARLINK-11224 [DTC]    
1 60304U 24133D   25044.98956969 -.00000222  00000+0  30182-5 0  9997
2 60304  53.1587 262.4260 0000498  92.2711 267.8364 15.69705126 32765
STARLINK-11115 [DTC]    
1 60305U 24133E   25044.98467333 -.00001702  00000+0 -91947-5 0  9991
2 60305  53.1594 262.3914 0000691 102.4732 257.6363 15.69710767 32720
STARLINK-11109 [DTC]    
1 60306U 24133F   25044.02472792 -.00000173  00000+0  34297-5 0  9997
2 60306  53.1580 267.0687 0000880  81.8782 278.2336 15.69707469 32533
STARLINK-11223 [DTC]    
1 60307U 24133G   25045.03361820 -.00006696  00000+0 -50381-4 0  9997
2 60307  53.1591 261.9811 0001244  33.2230 326.8865 15.69744444 32678
STARLINK-11192 [DTC]    
1 60308U 24133H   25044.97485631  .00000385  00000+0  80310-5 0  9990
2 60308  53.1589 262.3297 0000963  43.0125 317.0968 15.69717626 32733
STARLINK-11213 [DTC]    
1 60309U 24133J   25045.02871366  .00000032  00000+0  51160-5 0  9992
2 60309  53.1577 261.9459 0000976  94.7256 265.3874 15.69716969 32581
STARLINK-11200 [DTC]    
1 60310U 24133K   25045.02378703 -.00013488  00000+0 -10634-3 0  9991
2 60310  53.1593 261.9115 0000498  81.0327 279.0747 15.69782429 32740
STARLINK-11208 [DTC]    
1 60311U 24133L   25044.31864938  .00003996  00000+0  37815-4 0  9995
2 60311  53.1565 266.0661 0000826  61.0241 299.0859 15.69716320 32574
STARLINK-11206 [DTC]    
1 60312U 24133M   25044.31374535 -.00000943  00000+0 -29280-5 0  9994
2 60312  53.1581 266.0335 0000759  65.8223 294.2874 15.69707754 32573
STARLINK-11205 [DTC]    
1 60313U 24133N   25045.00919159 -.00005808  00000+0 -43037-4 0  9999
2 60313  53.1578 262.5493 0001583 100.9807 259.1389 15.69745394 32574
STARLINK-32191          
1 60314U 24133P   25045.07484954  .00013815  00000+0  47737-3 0  9992
2 60314  53.1576 301.9982 0001071 100.1164 259.9957 15.30221484 32200
STARLINK-32194          
1 60315U 24133Q   25044.95900741 -.00000621  00000+0 -88361-5 0  9999
2 60315  53.1606 302.6934 0001533  96.4037 263.7138 15.30198577 32120
STARLINK-32192          
1 60316U 24133R   25044.98738059  .00013186  00000+0  45641-3 0  9994
2 60316  53.1587 302.1646 0000952 111.4215 248.6888 15.30208544 32225
STARLINK-32189          
1 60317U 24133S   25044.95689098  .00000401  00000+0  25649-4 0  9993
2 60317  53.1600 302.6821 0001198  75.5381 284.5753 15.30204002 32213
STARLINK-32190          
1 60318U 24133T   25044.94739157  .00008307  00000+0  29215-3 0  9990
2 60318  53.1583 302.6257 0001175  90.8330 269.2805 15.30212606 32123
STARLINK-32182          
1 60319U 24133U   25045.08857485  .00001040  00000+0  47250-4 0  9999
2 60319  53.1612 302.0823 0001333  94.8592 265.2561 15.30189061 32190
STARLINK-32199          
1 60320U 24133V   25045.14649685 -.00000223  00000+0  45938-5 0  9994
2 60320  53.1597 301.7315 0001133 106.0058 254.1068 15.30207634 32193
STARLINK-32198          
1 60321U 24133W   25044.96005757  .00001112  00000+0  49661-4 0  9993
2 60321  53.1609 302.6976 0001416  99.7379 260.3782 15.30202712 32216
HULIANWAN GAOGUI-02 (H*)
1 60327U 24135A   25044.80095728 -.00000179  00000+0  00000+0 0  9993
2 60327   0.0226 147.8163 0002716 111.9976 325.7408  1.00268894  2605
STARLINK-31745          
1 60329U 24136A   25044.50215004  .00001299  00000+0  56001-4 0  9994
2 60329  53.1607  83.7325 0001429  71.8175 288.2981 15.30191237 31281
STARLINK-32153          
1 60330U 24136B   25045.08891122  .00002427  00000+0  94060-4 0  9992
2 60330  53.1616  80.9947 0002010  80.3954 279.7273 15.30200073 31221
STARLINK-32203          
1 60331U 24136C   25045.07501884  .00001129  00000+0  38202-4 0  9999
2 60331  53.1601  73.8007 0001406  90.3672 269.7494 15.39625122 31320
STARLINK-32171          
1 60332U 24136D   25044.49156732 -.00019405  00000+0 -64307-3 0  9995
2 60332  53.1612  83.6633 0000659 130.6044 229.5014 15.30284041 30072
STARLINK-32133          
1 60333U 24136E   25045.08259380 -.00001053  00000+0 -23426-4 0  9993
2 60333  53.1616  80.9529 0001522 105.0686 255.0483 15.30205510 31179
STARLINK-32132          
1 60334U 24136F   25044.42311742 -.00001804  00000+0 -48783-4 0  9999
2 60334  53.1607  83.9469 0001590  88.0527 272.0656 15.30193794 30063
STARLINK-32168          
1 60335U 24136G   25044.48526546  .00001520  00000+0  63443-4 0  9999
2 60335  53.1604  83.6221 0001498 104.9861 255.1306 15.30190664 30078
STARLINK-32079          
1 60336U 24136H   25044.48210572 -.00000273  00000+0  29253-5 0  9996
2 60336  53.1605  83.6014 0001746  91.4356 268.6845 15.30185868 30072
STARLINK-32078          
1 60338U 24136K   25044.47786132 -.00001364  00000+0 -33910-4 0  9994
2 60338  53.1602  83.5725 0001742 125.4967 234.6196 15.30221901 30072
STARLINK-32175          
1 60339U 24136L   25045.06359473 -.00002245  00000+0 -63672-4 0  9992
2 60339  53.1585  80.8310 0001400 108.9031 251.2121 15.30204370 31336
STARLINK-32176          
1 60340U 24136M   25045.06043296  .00000212  00000+0  19268-4 0  9999
2 60340  53.1596  80.8088 0001078  98.0446 262.0677 15.30193845 31332
STARLINK-32185          
1 60341U 24136N   25044.39989896  .00005740  00000+0  20578-3 0  9996
2 60341  53.1561  83.7963 0001339  83.1916 276.9237 15.30196897 31220
STARLINK-32221          
1 60342U 24136P   25045.12152166 -.00002326  00000+0 -66403-4 0  9998
2 60342  53.1597  80.4769 0001538  96.1302 263.9874 15.30213922 31280
STARLINK-32083          
1 60343U 24136Q   25045.12257047  .00001889  00000+0  75862-4 0  9993
2 60343  53.1588  80.4528 0001127 100.0998 260.0130 15.30203011 31128
STARLINK-32077          
1 60344U 24136R   25045.11518708  .00001377  00000+0  58603-4 0  9993
2 60344  53.1599  80.4402 0001351  86.7472 273.3684 15.30206886 31335
STARLINK-32075          
1 60345U 24136S   25044.39252325  .00000156  00000+0  17388-4 0  9992
2 60345  53.1609  83.7527 0001244  92.5263 267.5880 15.30186495 30061
STARLINK-32082          
1 60346U 24136T   25045.11201947  .00002408  00000+0  93397-4 0  9994
2 60346  53.1591  80.4162 0001292  64.7973 295.3162 15.30199926 31283
STARLINK-32084          
1 60347U 24136U   25045.10886072  .00002024  00000+0  80453-4 0  9995
2 60347  53.1596  80.3979 0001402  81.5808 278.5352 15.30191601 31344
STARLINK-32081          
1 60348U 24136V   25044.51786873  .00001147  00000+0  50841-4 0  9991
2 60348  53.1600  83.1103 0001269  76.9294 283.1848 15.30192499 30087
STARLINK-32181          
1 60349U 24136W   25044.50837133  .00001222  00000+0  53398-4 0  9991
2 60349  53.1603  83.0511 0001438  75.6973 284.4188 15.30188845 30082
STARLINK-32076          
1 60350U 24136X   25045.09936356  .00001926  00000+0  77185-4 0  9996
2 60350  53.1604  80.3385 0001451  87.9685 272.1482 15.30185338 31339
STARLINK-32097          
1 60351U 24136Y   25045.09303000  .00000875  00000+0  41671-4 0  9994
2 60351  53.1607  80.3019 0001384  75.1233 284.9921 15.30193336 31381
STRIX-4                 
1 60352U 24137A   25044.70536380  .00017790  00000+0  93581-3 0  9992
2 60352  43.0202 146.5134 0010335  12.6944 347.4162 15.15328250 29506
STARLINK-32285          
1 60355U 24138A   25045.14065017 -.00000628  00000+0 -90776-5 0  9998
2 60355  53.1602 314.0485 0001081  91.3136 268.7988 15.30206615 31131
STARLINK-32278          
1 60356U 24138B   25045.13760408 -.00002378  00000+0 -68194-4 0  9996
2 60356  53.1607 314.7311 0001273 122.1841 237.9283 15.30200106 31125
